1  8403U 74089CF  18212.48825623 -.00000018 +00000-0 +16259-3 0  9991
2  8403 101.3174 050.5780 0054158 196.1819 193.3291 12.46674097990896
1 08404U 74089CG  18212.73602230  .00000296  00000-0  12094-2 0  9996
2 08404 101.3314 133.6348 0099149 354.6452  38.5505 12.94414932 25068
1 08405U 74089CH  18212.64237305  .00000578  00000-0  99988-2 0  9994
2 08405 102.7161 148.5152 0707160  48.6031 317.3599 11.29681682806810
1 08406U 74089CJ  18211.73456376  .00000303  00000-0  20776-2 0  9990
2 08406 101.4167 127.4869 0025125  70.4309 318.6794 12.56874115   519
1 08407U 74089CK  18213.53414591  .00000125  00000-0  80343-3 0  9993
2 08407 101.2318 193.9731 0231554 159.0541 278.9948 12.66014244 21421
1 08435U 74089CL  18212.12425946 -.00000032  00000-0  69854-4 0  9997
2 08435 101.5974 270.7181 0165335  32.7733 355.2396 12.20713155948318
1 08437U 74089CN  18211.85854635 -.00000046  00000-0 -69900-5 0  9998
2 08437 101.5582 173.6864 0045148 323.6586  63.8405 12.58106623  6978
1 08438U 74089CP  18213.12170278 -.00002127  00000-0 -19445-2 0  9993
2 08438 101.6904 150.1409 0176906  27.7897 333.2561 13.74576509130188
1  8439U 74089CQ  18212.77598939 +.00004695 +00000-0 +16832-1 0  9998
2  8439 102.3920 333.1500 0064253 338.8131 021.0304 12.94736967043635
1 08495U 72058FQ  18212.16358704  .00014008  00000-0  24123-2 0  9993
2 08495 101.4881 340.0857 1116971 170.6607 191.7302 12.90172641881699
1  8533U 72058GG  18212.31778388 +.00000406 +00000-0 +86818-4 0  9995
2  8533 098.4916 248.3348 0130949 257.2095 101.4444 14.59528787113577
1 08539U 72058GN  18212.81791522  .00000243  00000-0  11145-3 0  9990
2 08539  97.3031 337.0847 0209382 254.1607 103.6401 14.17085056366626
1 08542U 72058GR  18212.21562689  .00000011  00000-0  26396-4 0  9996
2 08542  97.9769 121.2762 0358428 224.7459 132.4270 13.83899259321273
1  8544U 72058GT  18212.36296718 +.00000039 +00000-0 +66339-4 0  9992
2  8544 097.4469 104.9147 0848123 015.4290 347.1039 12.72709104151776
1  8555U 74089CS  18212.79302296 +.00000026 +00000-0 +43106-3 0  9998
2  8555 101.2870 049.8860 0060432 281.2878 145.0607 12.53060739992751
1  8556U 74089CT  18212.62376551 +.00000029 +00000-0 +44159-3 0  9998
2  8556 101.3555 094.6865 0084905 071.2247 318.9699 12.52990053996660
1 08560U 74089CX  18212.75048148  .00000011  00000-0  91214-4 0  9991
2 08560 102.1051 313.9244 0409687 152.0721 210.3049 13.30668705111145
1 08561U 74089CY  18213.22221161  .00000024  00000-0  36684-3 0  9996
2 08561 101.6476 208.7908 0071531 127.2966 299.0200 12.65355004 11387
1 08562U 74089CZ  18212.84249816  .00000061  00000-0  93342-3 0  9996
2 08562 101.6361 167.7883 0263914 353.8694  32.5647 12.15092805  6088
1  8563U 74089DA  18212.47659388 +.00000007 +00000-0 +30220-3 0  9991
2  8563 101.2005 038.5721 0084373 082.0676 306.8551 12.52865896995679
1  8564U 74089DB  18212.28880959 +.00000466 +00000-0 +26915-2 0  9995
2  8564 101.2494 146.8969 0059090 064.5358 089.8047 12.65857104009197
1 08566U 74089DD  18212.63747024  .00000097  00000-0  74423-3 0  9999
2 08566 101.6526 267.0544 0083851  51.3799 108.4267 12.66509122 17948
1 08567U 74089DE  18212.35136427 -.00002341  00000-0 -37731-1 0  9993
2 08567 100.6631 157.7442 0698851 284.8756 239.9330 11.30865240800133
1  8592U 74089DF  18212.47143106 -.00000013 +00000-0 +23019-3 0  9995
2  8592 101.6366 025.7920 0128637 356.4974 028.1606 12.31599104963780
1  8593U 74089DG  18212.91178549 -.00000051 +00000-0 -12367-4 0  9992
2  8593 101.9855 009.8523 0224184 060.0261 094.9434 12.71049843026526
1  8594U 74089DH  18212.58361198 +.00000020 +00000-0 +31127-3 0  9998
2  8594 101.7318 085.6025 0135924 072.2703 305.0615 12.72676400027420
1  8595U 74089DJ  18212.94102149 -.00000046 +00000-0 -60491-4 0  9995
2  8595 101.4464 250.6574 0148141 022.1584 097.0608 12.25285761955007
1  8596U 74089DK  18212.84424794 -.00000002 +00000-0 +22549-3 0  9990
2  8596 101.6837 335.2296 0087781 240.6655 275.0072 12.68538518021941
1  8678U 75004F   18212.47126807 +.00000090 +00000-0 +62507-4 0  9997
2  8678 097.6272 231.3436 0175980 252.3695 105.8192 14.09005247233228
1  8679U 75004G   18212.82369211 +.00000295 +00000-0 +67791-4 0  9992
2  8679 098.7941 252.7174 0211324 312.8222 045.5377 14.51370883221816
1  8682U 75004J   18212.93360620 +.00000022 +00000-0 +25428-4 0  9992
2  8682 097.7439 190.7113 0154670 301.6748 056.9425 14.18036364242295
1 08756U 74071C   18213.05306915  .00000331  00000-0  52926-4 0  9994
2 08756  74.0518 167.5825 0005439 253.3404 106.7173 14.76001541463725
1 08757U 75094D   18213.50170732  .00000456  00000-0  51855-4 0  9995
2 08757  74.0242 237.9553 0002520 274.3646  85.7247 14.89510538471923
1 08764U 70102E   18213.42797632  .00000052  00000-0  65495-4 0  9990
2 08764  74.0375 114.7556 0022636 281.2392 198.2813 13.85463575403543
1 08784U 74089DL  18212.11919993  .00003146  00000-0  93091-2 0  9999
2 08784 100.8076  81.2756 0277144  64.7468  85.0050 12.96678596154344
1 08785U 74089DM  18212.86831288  .00000238  00000-0  26370-2 0  9997
2 08785 101.0017 341.6742 0266248 317.9344 196.6897 12.11935505732444
1  8786U 74089DN  18212.21019015 -.00000022 +00000-0 +15968-3 0  9997
2  8786 101.9474 305.0858 0052581 010.1830 017.6344 12.44052264982318
1 08788U 74089DQ  18212.68903209 -.00000135  00000-0 -66748-3 0  9995
2 08788 102.2171 284.3592 0070462   3.7084 166.0551 12.39694452978846
1  8789U 74089DR  18211.87815957 -.00000002 +00000-0 +30740-3 0  9993
2  8789 101.7361 180.1618 0105104 203.8754 183.9868 12.38878126976021
1 08790U 74089DS  18213.15780365 -.00000029  00000-0  91590-4 0  9992
2 08790 101.5522 180.9841 0040905 303.2394 125.2098 12.58748808  6931
1 08791U 66087F   18212.45908764  .00000138  00000-0  97232-3 0  9997
2 08791 101.3252 190.8708 0138310 151.9575   1.7352 12.62663864381254
1  8828U 70106C   18212.85411994 +.00000072 +00000-0 +87836-3 0  9999
2  8828 101.9079 177.9035 0029190 058.5349 330.5369 12.38933998154916
1  8829U 74071D   18212.70978602 +.00000171 +00000-0 +44853-4 0  9996
2  8829 074.0641 322.5921 0014239 142.2906 217.9259 14.56537282393461
1  8867U 76047C   18212.50937459 +.00000024 +00000-0 +90603-4 0  9997
2  8867 099.3748 148.2112 0075286 045.6779 018.0814 13.56547341085617
1  8868U 76047D   18212.25832881 +.00000106 +00000-0 +14712-3 0  9990
2  8868 100.0086 131.4551 0050565 149.3996 004.2735 13.80343740120365
1 08908U 70025NJ  18212.52504240  .00001722  00000-0  12537-2 0  9997
2 08908 101.6805  47.2920 0141136 134.0583 227.2292 13.93534519342640
1  8951U 75004AH  18212.36302305 +.00000067 +00000-0 +21987-4 0  9999
2  8951 097.8441 177.0075 0031461 231.5521 128.2857 14.62800849230009
1 08954U 75004AL  18212.44800176  .00000262  00000-0  94809-4 0  9990
2 08954  97.6944 244.6538 0136577 191.2577 168.5548 14.35274761197565
1  8958U 75004AQ  18212.94002863 +.00000057 +00000-0 +22087-4 0  9997
2  8958 097.9003 257.0705 0039481 097.8066 262.7619 14.57105448242287
1  8959U 75004AR  18212.76723935 +.00000040 +00000-0 +24312-4 0  9993
2  8959 098.4272 135.5006 0067576 101.5522 259.3265 14.43772760227006
1  8968U 75004BA  18212.76210696 +.00000077 +00000-0 +43081-4 0  9992
2  8968 097.6884 134.0541 0137912 072.3997 289.2195 14.25181880198252
1  8969U 75004BB  18212.79416235 +.00000101 +00000-0 +46719-4 0  9992
2  8969 097.6179 216.7595 0126032 188.4836 171.4221 14.32334761203478
1  8970U 75004BC  18212.84400224 +.00000206 +00000-0 +72546-4 0  9994
2  8970 097.2998 355.0664 0117878 108.8851 252.5163 14.38489949204887
1 08981U 75004BP  18213.07702771  .00000159  00000-0  59804-4 0  9993
2 08981  97.6876 261.0888 0130190 330.6519  28.7401 14.38250111201613
1 09003U 75004CM  18213.18176528  .00000127  00000-0  25493-4 0  9998
2 09003  98.1210 299.3528 0029060 160.6335 199.5986 14.77136046263113
1  9040U 75004DE  18212.51544180 -.00000034 +00000-0 +17158-5 0  9996
2  9040 097.8460 062.9550 0046825 200.8633 159.0651 14.47165024197012
1 09293U 75004DU  18212.91223931  .00000041  00000-0  18932-4 0  9995
2 09293  97.8603  87.9580 0083475 206.9867 152.6979 14.55909684243863
1  9313U 75004EQ  18212.13069325 +.00000006 +00000-0 +14000-4 0  9990
2  9313 097.6026 338.5168 0087684 337.3458 022.3871 14.37631143222022
1  9320U 75004EX  18212.74647035 +.00000021 +00000-0 +13776-4 0  9991
2  9320 098.3924 142.2597 0057394 114.8617 245.8567 14.63917946148760
1  9323U 73088F   18212.75908369 +.00000047 +00000-0 +38601-3 0  9996
2  9323 097.0431 146.0078 0023178 315.5097 072.3025 12.58972771954477
1 09567U 75004FP  18213.34717022 -.00000021  00000-0  74459-5 0  9992
2 09567  97.8780 178.6557 0126009 315.2237  43.8825 14.20161548199223
1 09568U 73086FW  18212.28492437  .00001862  00000-0  18399-1 0  9993
2 09568 101.4642 326.4722 0342708 317.8018  66.3037 12.05784057958091
1 09569U 73098D   18212.54063256  .00000354  00000-0  46749-4 0  9997
2 09569  74.0517 266.3230 0011700 348.2952  11.7953 14.84139796483068
1  9570U 73086FX  18212.58824447 -.00000041 +00000-0 +58782-5 0  9992
2  9570 101.5349 246.3328 0068191 085.1704 069.5187 12.41215970020846
1 09572U 75112C   18213.52882572  .00000914  00000-0  67134-4 0  9992
2 09572  74.0275 281.8967 0002988 219.8757 140.2213 15.05199881268452
1  9619U 75004FU  18212.81626372 +.00000201 +00000-0 +71563-4 0  9999
2  9619 097.4145 170.4245 0114237 249.5598 109.3297 14.39131530256666
1 09650U 76126G   18212.55100473  .00000090  00000-0  45197-4 0  9990
2 09650  65.8128 219.1575 0913629 258.5464  91.1724 13.22330842973175
1 09653U 76126K   18213.19485463 -.00000265  00000-0 -68215-4 0  9991
2 09653  65.7703 291.4966 0832935   8.8681 352.6074 13.18482861964032
1 09655U 76126M   18213.48822194 -.00000096  00000-0  49842-5 0  9998
2 09655  65.7921 353.4566 0730420  38.9527 326.1878 13.62286353995365
1  9656U 76126N   18212.93412257 +.00000067 +00000-0 +93905-4 0  9998
2  9656 065.8200 186.5255 0895099 222.3942 130.4494 12.84934439912021
1  9663U 77002C   18212.78969760 -.00000021 +00000-0 -21782-4 0  9995
2  9663 081.2680 346.8406 0008119 128.1201 232.0699 14.02469881126289
